STARLINK-33793          
1 64165U 25112V   26051.11282294  .00004963  00000+0  34803-3 0  9998
2 64165  97.6020 104.1993 0000604 119.4124 240.7163 15.05639220 40669
STARLINK-34313          
1 64166U 25112W   26051.10450371  .00005917  00000+0  41398-3 0  9998
2 64166  97.6026 104.2106 0001353  93.0398 267.0984 15.05646605 40663
STARLINK-34309          
1 64167U 25112X   26051.16265322  .00002616  00000+0  18541-3 0  9992
2 64167  97.6034 104.2883 0001130 107.6638 252.4712 15.05654669 40674
STARLINK-34303          
1 64168U 25112Y   26051.15434921  .00002259  00000+0  16074-3 0  9997
2 64168  97.6038 104.3006 0000746 104.5176 255.6134 15.05652517 40675
STARLINK-34175          
1 64169U 25112Z   26051.13774545  .00006053  00000+0  42319-3 0  9992
2 64169  97.6030 104.1661 0001844  92.1841 267.9597 15.05662428 40664
STARLINK-34177          
1 64170U 25113A   26050.77350457  .00043389  00000+0  14682-2 0  9990
2 64170  53.1583 174.2429 0001684  59.6593 300.4574 15.30207962 42329
STARLINK-34228          
1 64171U 25113B   26050.81982064  .00023916  00000+0  81675-3 0  9992
2 64171  53.1580 173.8174 0001296  43.3492 316.7610 15.30209673 42339
STARLINK-34233          
1 64172U 25113C   26051.30973574  .00013989  00000+0  48348-3 0  9993
2 64172  53.1593 171.8929 0000909 105.1880 254.9222 15.30204832 42400
STARLINK-34172          
1 64173U 25113D   26050.82087552  .00029368  00000+0  99956-3 0  9991
2 64173  53.1585 173.8237 0001177  76.9996 283.1136 15.30206279 42299
STARLINK-34202          
1 64174U 25113E   26051.30234712  .00015566  00000+0  53640-3 0  9993
2 64174  53.1588 171.8479 0001564 141.8339 218.2773 15.30209582 42401
STARLINK-34231          
1 64175U 25113F   26050.86099008  .00027642  00000+0  94134-3 0  9992
2 64175  53.1608 174.0720 0001142  74.5607 285.5520 15.30220356 42332
STARLINK-34191          
1 64176U 25113G   26050.80715754  .00032223  00000+0  10950-2 0  9994
2 64176  53.1607 173.7363 0001351  75.2587 284.8563 15.30211047 42334
STARLINK-34164          
1 64177U 25113H   26050.93369168  .00027475  00000+0  93718-3 0  9990
2 64177  53.1611 173.8175 0003019  38.8545 321.2672 15.30169149 42347
STARLINK-34227          
1 64178U 25113J   26050.84831242  .00033519  00000+0  11391-2 0  9990
2 64178  53.1599 173.9938 0001257  66.3146 293.7986 15.30187699 42336
STARLINK-34194          
1 64179U 25113K   26050.81243044  .00019441  00000+0  66654-3 0  9996
2 64179  53.1598 173.7715 0001090  76.3632 283.7491 15.30211590 42331
STARLINK-34000          
1 64180U 25113L   26050.76821662  .00015299  00000+0  52737-3 0  9994
2 64180  53.1577 174.2046 0000795  72.4392 287.6696 15.30214725 42281
