[{"OBJECT_NAME":"STARLINK-33793","OBJECT_ID":"2025-112V","EPOCH":"2026-02-20T02:42:27.902016","MEAN_MOTION":15.0563922,"ECCENTRICITY":6.047e-5,"INCLINATION":97.602,"RA_OF_ASC_NODE":104.1993,"ARG_OF_PERICENTER":119.4124,"MEAN_ANOMALY":240.7163,"EPHEMERIS_TYPE":0,"CLASSIFICATION_TYPE":"U","NORAD_CAT_ID":64165,"ELEMENT_SET_NO":999,"REV_AT_EPOCH":4066,"BSTAR":0.00034802855,"MEAN_MOTION_DOT":4.963e-5,"MEAN_MOTION_DDOT":0},{"OBJECT_NAME":"STARLINK-34313","OBJECT_ID":"2025-112W","EPOCH":"2026-02-20T02:30:29.120544","MEAN_MOTION":15.05646605,"ECCENTRICITY":0.00013534,"INCLINATION":97.6026,"RA_OF_ASC_NODE":104.2106,"ARG_OF_PERICENTER":93.0398,"MEAN_ANOMALY":267.0984,"EPHEMERIS_TYPE":0,"CLASSIFICATION_TYPE":"U","NORAD_CAT_ID":64166,"ELEMENT_SET_NO":999,"REV_AT_EPOCH":4066,"BSTAR":0.00041397671,"MEAN_MOTION_DOT":5.917e-5,"MEAN_MOTION_DDOT":0},{"OBJECT_NAME":"STARLINK-34309","OBJECT_ID":"2025-112X","EPOCH":"2026-02-20T03:54:13.238208","MEAN_MOTION":15.05654669,"ECCENTRICITY":0.00011301,"INCLINATION":97.6034,"RA_OF_ASC_NODE":104.2883,"ARG_OF_PERICENTER":107.6638,"MEAN_ANOMALY":252.4712,"EPHEMERIS_TYPE":0,"CLASSIFICATION_TYPE":"U","NORAD_CAT_ID":64167,"ELEMENT_SET_NO":999,"REV_AT_EPOCH":4067,"BSTAR":0.00018541283,"MEAN_MOTION_DOT":2.616e-5,"MEAN_MOTION_DDOT":0},{"OBJECT_NAME":"STARLINK-34303","OBJECT_ID":"2025-112Y","EPOCH":"2026-02-20T03:42:15.771744","MEAN_MOTION":15.05652517,"ECCENTRICITY":7.469e-5,"INCLINATION":97.6038,"RA_OF_ASC_NODE":104.3006,"ARG_OF_PERICENTER":104.5176,"MEAN_ANOMALY":255.6134,"EPHEMERIS_TYPE":0,"CLASSIFICATION_TYPE":"U","NORAD_CAT_ID":64168,"ELEMENT_SET_NO":999,"REV_AT_EPOCH":4067,"BSTAR":0.00016073866,"MEAN_MOTION_DOT":2.259e-5,"MEAN_MOTION_DDOT":0},{"OBJECT_NAME":"STARLINK-34175","OBJECT_ID":"2025-112Z","EPOCH":"2026-02-20T03:18:21.206880","MEAN_MOTION":15.05662428,"ECCENTRICITY":0.00018445,"INCLINATION":97.603,"RA_OF_ASC_NODE":104.1661,"ARG_OF_PERICENTER":92.1841,"MEAN_ANOMALY":267.9597,"EPHEMERIS_TYPE":0,"CLASSIFICATION_TYPE":"U","NORAD_CAT_ID":64169,"ELEMENT_SET_NO":999,"REV_AT_EPOCH":4066,"BSTAR":0.00042319173,"MEAN_MOTION_DOT":6.053e-5,"MEAN_MOTION_DDOT":0},{"OBJECT_NAME":"STARLINK-34177","OBJECT_ID":"2025-113A","EPOCH":"2026-02-19T18:33:50.794848","MEAN_MOTION":15.30207962,"ECCENTRICITY":0.00016841,"INCLINATION":53.1583,"RA_OF_ASC_NODE":174.2429,"ARG_OF_PERICENTER":59.6593,"MEAN_ANOMALY":300.4574,"EPHEMERIS_TYPE":0,"CLASSIFICATION_TYPE":"U","NORAD_CAT_ID":64170,"ELEMENT_SET_NO":999,"REV_AT_EPOCH":4232,"BSTAR":0.0014681563,"MEAN_MOTION_DOT":0.00043389,"MEAN_MOTION_DDOT":0},{"OBJECT_NAME":"STARLINK-34228","OBJECT_ID":"2025-113B","EPOCH":"2026-02-19T19:40:32.503296","MEAN_MOTION":15.30209673,"ECCENTRICITY":0.0001296,"INCLINATION":53.158,"RA_OF_ASC_NODE":173.8174,"ARG_OF_PERICENTER":43.3492,"MEAN_ANOMALY":316.761,"EPHEMERIS_TYPE":0,"CLASSIFICATION_TYPE":"U","NORAD_CAT_ID":64171,"ELEMENT_SET_NO":999,"REV_AT_EPOCH":4233,"BSTAR":0.00081675,"MEAN_MOTION_DOT":0.00023916,"MEAN_MOTION_DDOT":0},{"OBJECT_NAME":"STARLINK-34233","OBJECT_ID":"2025-113C","EPOCH":"2026-02-20T07:26:01.167936","MEAN_MOTION":15.30204832,"ECCENTRICITY":9.095e-5,"INCLINATION":53.1593,"RA_OF_ASC_NODE":171.8929,"ARG_OF_PERICENTER":105.188,"MEAN_ANOMALY":254.9222,"EPHEMERIS_TYPE":0,"CLASSIFICATION_TYPE":"U","NORAD_CAT_ID":64172,"ELEMENT_SET_NO":999,"REV_AT_EPOCH":4240,"BSTAR":0.00048347672,"MEAN_MOTION_DOT":0.00013989,"MEAN_MOTION_DDOT":0},{"OBJECT_NAME":"STARLINK-34172","OBJECT_ID":"2025-113D","EPOCH":"2026-02-19T19:42:03.644928","MEAN_MOTION":15.30206279,"ECCENTRICITY":0.0001177,"INCLINATION":53.1585,"RA_OF_ASC_NODE":173.8237,"ARG_OF_PERICENTER":76.9996,"MEAN_ANOMALY":283.1136,"EPHEMERIS_TYPE":0,"CLASSIFICATION_TYPE":"U","NORAD_CAT_ID":64173,"ELEMENT_SET_NO":999,"REV_AT_EPOCH":4229,"BSTAR":0.00099956,"MEAN_MOTION_DOT":0.00029368,"MEAN_MOTION_DDOT":0},{"OBJECT_NAME":"STARLINK-34202","OBJECT_ID":"2025-113E","EPOCH":"2026-02-20T07:15:22.791168","MEAN_MOTION":15.30209582,"ECCENTRICITY":0.00015648,"INCLINATION":53.1588,"RA_OF_ASC_NODE":171.8479,"ARG_OF_PERICENTER":141.8339,"MEAN_ANOMALY":218.2773,"EPHEMERIS_TYPE":0,"CLASSIFICATION_TYPE":"U","NORAD_CAT_ID":64174,"ELEMENT_SET_NO":999,"REV_AT_EPOCH":4240,"BSTAR":0.00053640259,"MEAN_MOTION_DOT":0.00015566,"MEAN_MOTION_DDOT":0},{"OBJECT_NAME":"STARLINK-34231","OBJECT_ID":"2025-113F","EPOCH":"2026-02-19T20:39:49.542912","MEAN_MOTION":15.30220356,"ECCENTRICITY":0.0001142,"INCLINATION":53.1608,"RA_OF_ASC_NODE":174.072,"ARG_OF_PERICENTER":74.5607,"MEAN_ANOMALY":285.552,"EPHEMERIS_TYPE":0,"CLASSIFICATION_TYPE":"U","NORAD_CAT_ID":64175,"ELEMENT_SET_NO":999,"REV_AT_EPOCH":4233,"BSTAR":0.00094134,"MEAN_MOTION_DOT":0.00027642,"MEAN_MOTION_DDOT":0},{"OBJECT_NAME":"STARLINK-34191","OBJECT_ID":"2025-113G","EPOCH":"2026-02-19T19:22:18.411456","MEAN_MOTION":15.30211047,"ECCENTRICITY":0.00013515,"INCLINATION":53.1607,"RA_OF_ASC_NODE":173.7363,"ARG_OF_PERICENTER":75.2587,"MEAN_ANOMALY":284.8563,"EPHEMERIS_TYPE":0,"CLASSIFICATION_TYPE":"U","NORAD_CAT_ID":64176,"ELEMENT_SET_NO":999,"REV_AT_EPOCH":4233,"BSTAR":0.0010949719,"MEAN_MOTION_DOT":0.00032223,"MEAN_MOTION_DDOT":0},{"OBJECT_NAME":"STARLINK-34164","OBJECT_ID":"2025-113H","EPOCH":"2026-02-19T22:24:30.961152","MEAN_MOTION":15.30169149,"ECCENTRICITY":0.0003019,"INCLINATION":53.1611,"RA_OF_ASC_NODE":173.8175,"ARG_OF_PERICENTER":38.8545,"MEAN_ANOMALY":321.2672,"EPHEMERIS_TYPE":0,"CLASSIFICATION_TYPE":"U","NORAD_CAT_ID":64177,"ELEMENT_SET_NO":999,"REV_AT_EPOCH":4234,"BSTAR":0.00093718,"MEAN_MOTION_DOT":0.00027475,"MEAN_MOTION_DDOT":0},{"OBJECT_NAME":"STARLINK-34227","OBJECT_ID":"2025-113J","EPOCH":"2026-02-19T20:21:34.193088","MEAN_MOTION":15.30187699,"ECCENTRICITY":0.0001257,"INCLINATION":53.1599,"RA_OF_ASC_NODE":173.9938,"ARG_OF_PERICENTER":66.3146,"MEAN_ANOMALY":293.7986,"EPHEMERIS_TYPE":0,"CLASSIFICATION_TYPE":"U","NORAD_CAT_ID":64178,"ELEMENT_SET_NO":999,"REV_AT_EPOCH":4233,"BSTAR":0.0011391,"MEAN_MOTION_DOT":0.00033519,"MEAN_MOTION_DDOT":0},{"OBJECT_NAME":"STARLINK-34194","OBJECT_ID":"2025-113K","EPOCH":"2026-02-19T19:29:53.990016","MEAN_MOTION":15.3021159,"ECCENTRICITY":0.000109,"INCLINATION":53.1598,"RA_OF_ASC_NODE":173.7715,"ARG_OF_PERICENTER":76.3632,"MEAN_ANOMALY":283.7491,"EPHEMERIS_TYPE":0,"CLASSIFICATION_TYPE":"U","NORAD_CAT_ID":64179,"ELEMENT_SET_NO":999,"REV_AT_EPOCH":4233,"BSTAR":0.00066654,"MEAN_MOTION_DOT":0.00019441,"MEAN_MOTION_DDOT":0},{"OBJECT_NAME":"STARLINK-34000","OBJECT_ID":"2025-113L","EPOCH":"2026-02-19T18:26:13.915968","MEAN_MOTION":15.30214725,"ECCENTRICITY":7.959e-5,"INCLINATION":53.1577,"RA_OF_ASC_NODE":174.2046,"ARG_OF_PERICENTER":72.4392,"MEAN_ANOMALY":287.6696,"EPHEMERIS_TYPE":0,"CLASSIFICATION_TYPE":"U","NORAD_CAT_ID":64180,"ELEMENT_SET_NO":999,"REV_AT_EPOCH":4228,"BSTAR":0.00052736764,"MEAN_MOTION_DOT":0.00015299,"MEAN_MOTION_DDOT":0}]
